TIANMU-1 21             
1 58662U 23208C   26194.83923428  .00005677  00000+0  16670-3 0  9990
2 58662  97.4528 314.7454 0006570 209.2581 150.8295 15.35536224141650
TIANMU-1 22             
1 58663U 23208D   26194.86566554  .00004288  00000+0  14396-3 0  9997
2 58663  97.4523 311.2243 0002638 224.3243 135.7787 15.31415283141417
TIANMU-1 15             
1 58700U 24004A   26194.83657738  .00003119  00000+0  12085-3 0  9991
2 58700  97.4666  21.0272 0005943 234.3218 125.7468 15.26905296139841
TIANMU-1 16             
1 58701U 24004B   26194.82613569  .00003007  00000+0  11627-3 0  9992
2 58701  97.4614  20.2341 0004396 251.9759 108.1001 15.27008159139840
TIANMU-1 17             
1 58702U 24004C   26194.87714560  .00003204  00000+0  12369-3 0  9994
2 58702  97.4640  20.7799 0003882 258.6520 101.4283 15.27006915139847
TIANMU-1 18             
1 58703U 24004D   26194.85316009  .00002990  00000+0  11594-3 0  9999
2 58703  97.4658  21.0184 0003659 230.9368 129.1546 15.26921991139842
INSAT-3DS               
1 58990U 24033A   26194.86242222 -.00000161  00000+0  00000+0 0  9990
2 58990   0.0951 264.9709 0001036 225.3823 193.9225  1.00271008 47337
METEOR-M2 4             
1 59051U 24039A   26194.84303461 -.00000014  00000+0  13270-4 0  9991
2 59051  98.7024 153.8081 0008245  92.1059 268.1063 14.22432074123059
GOES 19                 
1 60133U 24119A   26194.83129897 -.00000253  00000+0  00000+0 0  9998
2 60133   0.0018 260.6967 0000444 316.5229 298.5518  1.00271812  7232
MTG-S1                  
1 64723U 25143A   26194.84609470 -.00000012  00000+0  00000+0 0  9999
2 64723   0.5850 344.7832 0003484 261.8262 349.2858  1.00273221  3683
METOP-SGA1              
1 65159U 25172A   26194.77783163  .00000016  00000+0  27927-4 0  9994
2 65159  98.6631 253.9432 0007151 336.4606  23.6242 14.19819015 47561
FENGYUN 3H              
1 65815U 25219A   26194.81817793 -.00000003  00000+0  19054-4 0  9996
2 65815  98.6771 135.0702 0001184  63.0799 297.0498 14.19924681 41167
