OBJECT_NAME,OBJECT_ID,EPOCH,MEAN_MOTION,ECCENTRICITY,INCLINATION,RA_OF_ASC_NODE,ARG_OF_PERICENTER,MEAN_ANOMALY,EPHEMERIS_TYPE,CLASSIFICATION_TYPE,NORAD_CAT_ID,ELEMENT_SET_NO,REV_AT_EPOCH,BSTAR,MEAN_MOTION_DOT,MEAN_MOTION_DDOT
TIANMU-1 21,2023-208C,2026-07-13T20:08:29.841792,15.35536224,.000657,97.4528,314.7454,209.2581,150.8295,0,U,58662,999,14165,.1667E-3,.5677E-4,0
TIANMU-1 22,2023-208D,2026-07-13T20:46:33.502656,15.31415283,.0002638,97.4523,311.2243,224.3243,135.7787,0,U,58663,999,14141,.14396E-3,.4288E-4,0
TIANMU-1 15,2024-004A,2026-07-13T20:04:40.285632,15.26905296,.0005943,97.4666,21.0272,234.3218,125.7468,0,U,58700,999,13984,.12085E-3,.3119E-4,0
TIANMU-1 16,2024-004B,2026-07-13T19:49:38.123616,15.27008159,.0004396,97.4614,20.2341,251.9759,108.1001,0,U,58701,999,13984,.11627E-3,.3007E-4,0
TIANMU-1 17,2024-004C,2026-07-13T21:03:05.379840,15.27006915,.0003882,97.4640,20.7799,258.6520,101.4283,0,U,58702,999,13984,.12369E-3,.3204E-4,0
TIANMU-1 18,2024-004D,2026-07-13T20:28:33.031776,15.26921991,.0003659,97.4658,21.0184,230.9368,129.1546,0,U,58703,999,13984,.11594E-3,.299E-4,0
INSAT-3DS,2024-033A,2026-07-13T20:41:53.279808,1.00271008,.0001036,0.0951,264.9709,225.3823,193.9225,0,U,58990,999,4733,0,-.161E-5,0
METEOR-M2 4,2024-039A,2026-07-13T20:13:58.190304,14.22432074,.0008245,98.7024,153.8081,92.1059,268.1063,0,U,59051,999,12305,.1327E-4,-.14E-6,0
GOES 19,2024-119A,2026-07-13T19:57:04.231008,1.00271812,.0000444,0.0018,260.6967,316.5229,298.5518,0,U,60133,999,723,0,-.253E-5,0
MTG-S1,2025-143A,2026-07-13T20:18:22.582080,1.00273221,.0003484,0.5850,344.7832,261.8262,349.2858,0,U,64723,999,368,0,-.12E-6,0
METOP-SGA1,2025-172A,2026-07-13T18:40:04.652832,14.19819015,.0007151,98.6631,253.9432,336.4606,23.6242,0,U,65159,999,4756,.27927E-4,.16E-6,0
FENGYUN 3H,2025-219A,2026-07-13T19:38:10.573152,14.19924681,.0001184,98.6771,135.0702,63.0799,297.0498,0,U,65815,999,4116,.19054E-4,-.3E-7,0
